IRIDIUM 7               
1 24793U 97020B   24288.71653985  .00001261  00000+0  43191-3 0  9991
2 24793  86.3899 279.7451 0002195  95.5855 264.5592 14.35498728436679
IRIDIUM 5               
1 24795U 97020D   24288.25174771  .00009207  00000+0  83475-3 0  9990
2 24795  86.3976 196.7024 0114465 299.7200  59.2674 14.90263908448783
IRIDIUM 4               
1 24796U 97020E   24288.71600570  .00001085  00000+0  36391-3 0  9994
2 24796  86.3896 276.7803 0002198  89.2798 270.8650 14.36419370437220
IRIDIUM 914             
1 24836U 97030A   24288.84159272  .00001516  00000+0  47226-3 0  9990
2 24836  86.3877 286.0734 0001525  41.0623 319.0691 14.40333136571801
IRIDIUM 16              
1 24841U 97030F   24288.57529178  .00001226  00000+0  39742-3 0  9994
2 24841  86.3996 308.4939 0003822 120.9691 239.1883 14.38219919431695
IRIDIUM 911             
1 24842U 97030G   24288.47761594  .00001345  00000+0  36440-3 0  9998
2 24842  86.4424 307.5529 0013826 187.6295 172.4700 14.46962297439545
IRIDIUM 17              
1 24870U 97034B   24288.75861894  .00001279  00000+0  42215-3 0  9991
2 24870  86.3981 337.9888 0003818  94.9937 265.1696 14.37335387428323
IRIDIUM 920             
1 24871U 97034C   24288.59849501  .00001210  00000+0  37004-3 0  9990
2 24871  86.3956 317.8526 0012108 161.7974 198.3661 14.41027459431201
